ORBCOMM-X [-]           
1 21576U 91050C   24091.87491058  .00000545  00000+0  17783-3 0  9996
2 21576  98.3960 160.3301 0004874  86.9085 273.2663 14.42423447718337
ORBCOMM FM01 [-]        
1 23545U 95017A   24091.68180060  .00007120  00000+0  96810-3 0  9992
2 23545  69.9665  88.0978 0009033 273.1553  86.8562 14.79137992546836
ORBCOMM FM02 [-]        
1 23546U 95017B   24091.76710941  .00006588  00000+0  90520-3 0  9998
2 23546  69.9680 107.2411 0010887 269.1253  90.8648 14.78721828546499
ORBCOMM FM08 [-]        
1 25112U 97084A   24091.91717529  .00002113  00000+0  67761-3 0  9992
2 25112  45.0153 325.1180 0007128 173.7886 186.3053 14.42262202377445
ORBCOMM FM10 [-]        
1 25113U 97084B   24091.92183319  .00002339  00000+0  74681-3 0  9997
2 25113  45.0166 326.9218 0004942 142.6545 217.4650 14.42181060552591
ORBCOMM FM11 [+]        
1 25114U 97084C   24091.93726988  .00002237  00000+0  71777-3 0  9994
2 25114  45.0152 326.8853 0005676 143.4740 216.6498 14.42064741377561
ORBCOMM FM12 [-]        
1 25115U 97084D   24091.96535565  .00002124  00000+0  68412-3 0  9994
2 25115  45.0156 326.4336 0004715 143.4912 216.6260 14.42032115377367
ORBCOMM FM09 [-]        
1 25116U 97084E   24091.90647120  .00002089  00000+0  67408-3 0  9994
2 25116  45.0162 327.3899 0005862 129.0126 231.1246 14.41997479377593
